CCSDS_OMM_VERS = 2.0
CREATION_DATE  = 
ORIGINATOR     = 

OBJECT_NAME    = COSMOS 1933
OBJECT_ID      = 1988-020A
CENTER_NAME    = EARTH
REF_FRAME      = TEME
TIME_SYSTEM    = UTC
MEAN_ELEMENT_THEORY = SGP/SGP4

EPOCH          = 2026-02-25T01:36:47.609280
MEAN_MOTION    = 15.17853460
ECCENTRICITY   = .0002772
INCLINATION    = 82.5100
RA_OF_ASC_NODE = 263.4025
ARG_OF_PERICENTER = 233.9550
MEAN_ANOMALY   = 126.1427

EPHEMERIS_TYPE = 0
CLASSIFICATION_TYPE = U
NORAD_CAT_ID   = 18958
ELEMENT_SET_NO = 999
REV_AT_EPOCH   = 4831
BSTAR          = .16156E-3
MEAN_MOTION_DOT = .33E-4
MEAN_MOTION_DDOT = 0

CCSDS_OMM_VERS = 2.0
CREATION_DATE  = 
ORIGINATOR     = 

OBJECT_NAME    = SL-3 R/B
OBJECT_ID      = 1988-032B
CENTER_NAME    = EARTH
REF_FRAME      = TEME
TIME_SYSTEM    = UTC
MEAN_ELEMENT_THEORY = SGP/SGP4

EPOCH          = 2026-02-25T03:46:27.490368
MEAN_MOTION    = 15.19734349
ECCENTRICITY   = .0024127
INCLINATION    = 97.5174
RA_OF_ASC_NODE = 39.4564
ARG_OF_PERICENTER = 278.6492
MEAN_ANOMALY   = 81.2010

EPHEMERIS_TYPE = 0
CLASSIFICATION_TYPE = U
NORAD_CAT_ID   = 19046
ELEMENT_SET_NO = 999
REV_AT_EPOCH   = 5020
BSTAR          = .25696E-3
MEAN_MOTION_DOT = .5463E-4
MEAN_MOTION_DDOT = 0

CCSDS_OMM_VERS = 2.0
CREATION_DATE  = 
ORIGINATOR     = 

OBJECT_NAME    = SL-16 R/B
OBJECT_ID      = 1988-039B
CENTER_NAME    = EARTH
REF_FRAME      = TEME
TIME_SYSTEM    = UTC
MEAN_ELEMENT_THEORY = SGP/SGP4

EPOCH          = 2026-02-25T03:44:46.860288
MEAN_MOTION    = 14.19613745
ECCENTRICITY   = .0022009
INCLINATION    = 71.0132
RA_OF_ASC_NODE = 95.0526
ARG_OF_PERICENTER = 353.0351
MEAN_ANOMALY   = 7.0464

EPHEMERIS_TYPE = 0
CLASSIFICATION_TYPE = U
NORAD_CAT_ID   = 19120
ELEMENT_SET_NO = 999
REV_AT_EPOCH   = 95660
BSTAR          = .28036E-4
MEAN_MOTION_DOT = .11E-6
MEAN_MOTION_DDOT = 0

CCSDS_OMM_VERS = 2.0
CREATION_DATE  = 
ORIGINATOR     = 

OBJECT_NAME    = COSMOS 1953
OBJECT_ID      = 1988-050A
CENTER_NAME    = EARTH
REF_FRAME      = TEME
TIME_SYSTEM    = UTC
MEAN_ELEMENT_THEORY = SGP/SGP4

EPOCH          = 2026-02-24T17:28:12.009792
MEAN_MOTION    = 15.28254756
ECCENTRICITY   = .0011725
INCLINATION    = 82.5095
RA_OF_ASC_NODE = 171.2758
ARG_OF_PERICENTER = 165.2057
MEAN_ANOMALY   = 194.9528

EPHEMERIS_TYPE = 0
CLASSIFICATION_TYPE = U
NORAD_CAT_ID   = 19210
ELEMENT_SET_NO = 999
REV_AT_EPOCH   = 3580
BSTAR          = .33251255E-3
MEAN_MOTION_DOT = .9203E-4
MEAN_MOTION_DDOT = 0

CCSDS_OMM_VERS = 2.0
CREATION_DATE  = 
ORIGINATOR     = 

OBJECT_NAME    = SL-8 R/B
OBJECT_ID      = 1988-053B
CENTER_NAME    = EARTH
REF_FRAME      = TEME
TIME_SYSTEM    = UTC
MEAN_ELEMENT_THEORY = SGP/SGP4

EPOCH          = 2026-02-25T05:05:37.459104
MEAN_MOTION    = 14.38907306
ECCENTRICITY   = .0021043
INCLINATION    = 74.0479
RA_OF_ASC_NODE = 135.4651
ARG_OF_PERICENTER = 316.7134
MEAN_ANOMALY   = 108.1405

EPHEMERIS_TYPE = 0
CLASSIFICATION_TYPE = U
NORAD_CAT_ID   = 19257
ELEMENT_SET_NO = 999
REV_AT_EPOCH   = 97480
BSTAR          = .74032E-4
MEAN_MOTION_DOT = .202E-5
MEAN_MOTION_DDOT = 0

CCSDS_OMM_VERS = 2.0
CREATION_DATE  = 
ORIGINATOR     = 

OBJECT_NAME    = COSMOS 1975
OBJECT_ID      = 1988-093A
CENTER_NAME    = EARTH
REF_FRAME      = TEME
TIME_SYSTEM    = UTC
MEAN_ELEMENT_THEORY = SGP/SGP4

EPOCH          = 2026-02-25T03:37:20.117856
MEAN_MOTION    = 15.27842114
ECCENTRICITY   = .0011025
INCLINATION    = 82.5206
RA_OF_ASC_NODE = 130.2684
ARG_OF_PERICENTER = 207.6130
MEAN_ANOMALY   = 152.4525

EPHEMERIS_TYPE = 0
CLASSIFICATION_TYPE = U
NORAD_CAT_ID   = 19573
ELEMENT_SET_NO = 999
REV_AT_EPOCH   = 1749
BSTAR          = .27276E-3
MEAN_MOTION_DOT = .7458E-4
MEAN_MOTION_DDOT = 0

CCSDS_OMM_VERS = 2.0
CREATION_DATE  = 
ORIGINATOR     = 

OBJECT_NAME    = SL-14 R/B
OBJECT_ID      = 1988-093B
CENTER_NAME    = EARTH
REF_FRAME      = TEME
TIME_SYSTEM    = UTC
MEAN_ELEMENT_THEORY = SGP/SGP4

EPOCH          = 2026-02-25T01:37:25.783392
MEAN_MOTION    = 14.85638647
ECCENTRICITY   = .0022331
INCLINATION    = 82.5283
RA_OF_ASC_NODE = 53.8947
ARG_OF_PERICENTER = 80.6836
MEAN_ANOMALY   = 342.0841

EPHEMERIS_TYPE = 0
CLASSIFICATION_TYPE = U
NORAD_CAT_ID   = 19574
ELEMENT_SET_NO = 999
REV_AT_EPOCH   = 99916
BSTAR          = .51669E-4
MEAN_MOTION_DOT = .474E-5
MEAN_MOTION_DDOT = 0

CCSDS_OMM_VERS = 2.0
CREATION_DATE  = 
ORIGINATOR     = 

OBJECT_NAME    = SL-16 R/B
OBJECT_ID      = 1988-102B
CENTER_NAME    = EARTH
REF_FRAME      = TEME
TIME_SYSTEM    = UTC
MEAN_ELEMENT_THEORY = SGP/SGP4

EPOCH          = 2026-02-25T01:11:04.067232
MEAN_MOTION    = 14.16150827
ECCENTRICITY   = .0013206
INCLINATION    = 71.0003
RA_OF_ASC_NODE = 178.0910
ARG_OF_PERICENTER = 20.8928
MEAN_ANOMALY   = 339.2732

EPHEMERIS_TYPE = 0
CLASSIFICATION_TYPE = U
NORAD_CAT_ID   = 19650
ELEMENT_SET_NO = 999
REV_AT_EPOCH   = 92510
BSTAR          = -.10089E-3
MEAN_MOTION_DOT = -.248E-5
MEAN_MOTION_DDOT = 0

CCSDS_OMM_VERS = 2.0
CREATION_DATE  = 
ORIGINATOR     = 

OBJECT_NAME    = INTERCOSMOS 24
OBJECT_ID      = 1989-080A
CENTER_NAME    = EARTH
REF_FRAME      = TEME
TIME_SYSTEM    = UTC
MEAN_ELEMENT_THEORY = SGP/SGP4

EPOCH          = 2026-02-25T04:09:44.815968
MEAN_MOTION    = 12.59536218
ECCENTRICITY   = .1187071
INCLINATION    = 82.6043
RA_OF_ASC_NODE = 112.5538
ARG_OF_PERICENTER = 321.8994
MEAN_ANOMALY   = 30.3627

EPHEMERIS_TYPE = 0
CLASSIFICATION_TYPE = U
NORAD_CAT_ID   = 20261
ELEMENT_SET_NO = 999
REV_AT_EPOCH   = 66522
BSTAR          = .16097E-3
MEAN_MOTION_DOT = .546E-5
MEAN_MOTION_DDOT = 0

CCSDS_OMM_VERS = 2.0
CREATION_DATE  = 
ORIGINATOR     = 

OBJECT_NAME    = SL-14 R/B
OBJECT_ID      = 1989-080C
CENTER_NAME    = EARTH
REF_FRAME      = TEME
TIME_SYSTEM    = UTC
MEAN_ELEMENT_THEORY = SGP/SGP4

EPOCH          = 2026-02-25T01:44:45.612960
MEAN_MOTION    = 12.50474772
ECCENTRICITY   = .1230063
INCLINATION    = 82.5968
RA_OF_ASC_NODE = 181.2837
ARG_OF_PERICENTER = 213.5871
MEAN_ANOMALY   = 138.1058

EPHEMERIS_TYPE = 0
CLASSIFICATION_TYPE = U
NORAD_CAT_ID   = 20262
ELEMENT_SET_NO = 999
REV_AT_EPOCH   = 65857
BSTAR          = .16901E-3
MEAN_MOTION_DOT = .567E-5
MEAN_MOTION_DDOT = 0

CCSDS_OMM_VERS = 2.0
CREATION_DATE  = 
ORIGINATOR     = 

OBJECT_NAME    = DELTA 1 R/B
OBJECT_ID      = 1989-089B
CENTER_NAME    = EARTH
REF_FRAME      = TEME
TIME_SYSTEM    = UTC
MEAN_ELEMENT_THEORY = SGP/SGP4

EPOCH          = 2026-02-25T03:15:58.583808
MEAN_MOTION    = 14.50650949
ECCENTRICITY   = .0069603
INCLINATION    = 97.0714
RA_OF_ASC_NODE = 265.5709
ARG_OF_PERICENTER = 161.1546
MEAN_ANOMALY   = 199.2252

EPHEMERIS_TYPE = 0
CLASSIFICATION_TYPE = U
NORAD_CAT_ID   = 20323
ELEMENT_SET_NO = 999
REV_AT_EPOCH   = 89391
BSTAR          = .78659E-4
MEAN_MOTION_DOT = .283E-5
MEAN_MOTION_DDOT = 0

CCSDS_OMM_VERS = 2.0
CREATION_DATE  = 
ORIGINATOR     = 

OBJECT_NAME    = ARIANE 40 R/B
OBJECT_ID      = 1990-005H
CENTER_NAME    = EARTH
REF_FRAME      = TEME
TIME_SYSTEM    = UTC
MEAN_ELEMENT_THEORY = SGP/SGP4

EPOCH          = 2026-02-25T03:59:11.853888
MEAN_MOTION    = 14.39860911
ECCENTRICITY   = .0009132
INCLINATION    = 98.3112
RA_OF_ASC_NODE = 117.1990
ARG_OF_PERICENTER = 238.2696
MEAN_ANOMALY   = 121.7603

EPHEMERIS_TYPE = 0
CLASSIFICATION_TYPE = U
NORAD_CAT_ID   = 20443
ELEMENT_SET_NO = 999
REV_AT_EPOCH   = 89100
BSTAR          = .82732E-4
MEAN_MOTION_DOT = .217E-5
MEAN_MOTION_DDOT = 0

