COSMOS 1933             
1 18958U 88020A   26056.06721770  .00003300  00000+0  16156-3 0  9995
2 18958  82.5100 263.4025 0002772 233.9550 126.1427 15.17853460 48315
SL-3 R/B                
1 19046U 88032B   26056.15726262  .00005463  00000+0  25696-3 0  9999
2 19046  97.5174  39.4564 0024127 278.6492  81.2010 15.19734349 50205
SL-16 R/B               
1 19120U 88039B   26056.15609792  .00000011  00000+0  28036-4 0  9993
2 19120  71.0132  95.0526 0022009 353.0351   7.0464 14.19613745956607
COSMOS 1953             
1 19210U 88050A   26055.72791678  .00009203  00000+0  33251-3 0  9999
2 19210  82.5095 171.2758 0011725 165.2057 194.9528 15.28254756 35806
SL-8 R/B                
1 19257U 88053B   26056.21223911  .00000202  00000+0  74032-4 0  9991
2 19257  74.0479 135.4651 0021043 316.7134 108.1405 14.38907306974805
COSMOS 1975             
1 19573U 88093A   26056.15092729  .00007458  00000+0  27276-3 0  9997
2 19573  82.5206 130.2684 0011025 207.6130 152.4525 15.27842114 17492
SL-14 R/B               
1 19574U 88093B   26056.06765953  .00000474  00000+0  51669-4 0  9999
2 19574  82.5283  53.8947 0022331  80.6836 342.0841 14.85638647999162
SL-16 R/B               
1 19650U 88102B   26056.04935263 -.00000248  00000+0 -10089-3 0  9997
2 19650  71.0003 178.0910 0013206  20.8928 339.2732 14.16150827925102
INTERCOSMOS 24          
1 20261U 89080A   26056.17343537  .00000546  00000+0  16097-3 0  9998
2 20261  82.6043 112.5538 1187071 321.8994  30.3627 12.59536218665226
SL-14 R/B               
1 20262U 89080C   26056.07275015  .00000567  00000+0  16901-3 0  9990
2 20262  82.5968 181.2837 1230063 213.5871 138.1058 12.50474772658570
DELTA 1 R/B             
1 20323U 89089B   26056.13609472  .00000283  00000+0  78659-4 0  9996
2 20323  97.0714 265.5709 0069603 161.1546 199.2252 14.50650949893915
ARIANE 40 R/B           
1 20443U 90005H   26056.16610942  .00000217  00000+0  82732-4 0  9990
2 20443  98.3112 117.1990 0009132 238.2696 121.7603 14.39860911891008
